{"type": "FeatureCollection", "features": [ {"type": "Feature", "properties": {"norad_id": 39155, "name": "COSMOS 2485 (747)", "group": "glo-ops", "lat": 29.276765662323896, "lon": -115.28899369804762, "alt_km": 19118.192926423675, "timestamp": "2025-12-20T07:33:51.073912+00:00", "meta": {"OBJECT_NAME": "COSMOS 2485 (747)", "OBJECT_ID": "2013-019A", "EPOCH": "2025-12-18T17:09:02.655648", "MEAN_MOTION": 2.13103192, "ECCENTRICITY": 0.00247782, "INCLINATION": 65.3168, "RA_OF_ASC_NODE": 79.6661, "ARG_OF_PERICENTER": 230.0863, "MEAN_ANOMALY": 129.7189, "EPHEMERIS_TYPE": 0, "CLASSIFICATION_TYPE": "U", "NORAD_CAT_ID": 39155, "ELEMENT_SET_NO": 999, "REV_AT_EPOCH": 9843, "BSTAR": 0, "MEAN_MOTION_DOT": -3.5e-07, "MEAN_MOTION_DDOT": 0}, "tle": {"line1": "1 39155U 13019A   25352.71461407 -.00000035  00000+0  00000+0 0  9991", "line2": "2 39155  65.3168  79.6661 0024778 230.0863 129.7189  2.13103192 98432"}}, "geometry": {"type": "Point", "coordinates": [-115.28899369804762, 29.276765662323896]}}, {"type": "Feature", "properties": {"norad_id": 39620, "name": "COSMOS 2492 (754)", "group": "glo-ops", "lat": 0.47742472235136674, "lon": 139.77708151599717, "alt_km": 19155.019500036127, "timestamp": "2025-12-20T07:33:51.073923+00:00", "meta": {"OBJECT_NAME": "COSMOS 2492 (754)", "OBJECT_ID": "2014-012A", "EPOCH": "2025-12-18T04:53:42.056736", "MEAN_MOTION": 2.13103354, "ECCENTRICITY": 0.0014217, "INCLINATION": 65.4043, "RA_OF_ASC_NODE": 320.0846, "ARG_OF_PERICENTER": 312.4931, "MEAN_ANOMALY": 47.3782, "EPHEMERIS_TYPE": 0, "CLASSIFICATION_TYPE": "U", "NORAD_CAT_ID": 39620, "ELEMENT_SET_NO": 999, "REV_AT_EPOCH": 9138, "BSTAR": 0, "MEAN_MOTION_DOT": -6.4e-07, "MEAN_MOTION_DDOT": 0}, "tle": {"line1": "1 39620U 14012A   25352.20395899 -.00000064  00000+0  00000+0 0  9999", "line2": "2 39620  65.4043 320.0846 0014217 312.4931  47.3782  2.13103354 91389"}}, "geometry": {"type": "Point", "coordinates": [139.77708151599717, 0.47742472235136674]}}, {"type": "Feature", "properties": {"norad_id": 40001, "name": "COSMOS 2500 (755)", "group": "glo-ops", "lat": 42.11953557653837, "lon": -15.710150621207532, "alt_km": 19144.382932796976, "timestamp": "2025-12-20T07:33:51.073934+00:00", "meta": {"OBJECT_NAME": "COSMOS 2500 (755)", "OBJECT_ID": "2014-032A", "EPOCH": "2025-12-19T07:33:00.956160", "MEAN_MOTION": 2.13106226, "ECCENTRICITY": 0.0007806, "INCLINATION": 65.3396, "RA_OF_ASC_NODE": 319.8089, "ARG_OF_PERICENTER": 219.2703, "MEAN_ANOMALY": 140.6644, "EPHEMERIS_TYPE": 0, "CLASSIFICATION_TYPE": "U", "NORAD_CAT_ID": 40001, "ELEMENT_SET_NO": 999, "REV_AT_EPOCH": 8962, "BSTAR": 0, "MEAN_MOTION_DOT": -5.9e-07, "MEAN_MOTION_DDOT": 0}, "tle": {"line1": "1 40001U 14032A   25353.31459440 -.00000059  00000+0  00000+0 0  9996", "line2": "2 40001  65.3396 319.8089 0007806 219.2703 140.6644  2.13106226 89625"}}, "geometry": {"type": "Point", "coordinates": [-15.710150621207532, 42.11953557653837]}}, {"type": "Feature", "properties": {"norad_id": 40315, "name": "COSMOS 2501 (702K)", "group": "glo-ops", "lat": -25.082782762772634, "lon": 30.0102027113798, "alt_km": 19082.281834666173, "timestamp": "2025-12-20T07:33:51.073945+00:00", "meta": {"OBJECT_NAME": "COSMOS 2501 (702K)", "OBJECT_ID": "2014-075A", "EPOCH": "2025-12-19T02:31:27.452640", "MEAN_MOTION": 2.13101513, "ECCENTRICITY": 0.0020099, "INCLINATION": 63.6146, "RA_OF_ASC_NODE": 196.6046, "ARG_OF_PERICENTER": 204.1838, "MEAN_ANOMALY": 155.7988, "EPHEMERIS_TYPE": 0, "CLASSIFICATION_TYPE": "U", "NORAD_CAT_ID": 40315, "ELEMENT_SET_NO": 999, "REV_AT_EPOCH": 8601, "BSTAR": 0, "MEAN_MOTION_DOT": 1.06e-06, "MEAN_MOTION_DDOT": 0}, "tle": {"line1": "1 40315U 14075A   25353.10517885  .00000106  00000+0  00000+0 0  9998", "line2": "2 40315  63.6146 196.6046 0020099 204.1838 155.7988  2.13101513 86014"}}, "geometry": {"type": "Point", "coordinates": [30.0102027113798, -25.082782762772634]}}, {"type": "Feature", "properties": {"norad_id": 41330, "name": "COSMOS 2514 (751)", "group": "glo-ops", "lat": -36.10996026106635, "lon": 158.89473580681758, "alt_km": 19104.457268923932, "timestamp": "2025-12-20T07:33:51.073956+00:00", "meta": {"OBJECT_NAME": "COSMOS 2514 (751)", "OBJECT_ID": "2016-008A", "EPOCH": "2025-12-19T13:24:08.784000", "MEAN_MOTION": 2.13102719, "ECCENTRICITY": 0.00118, "INCLINATION": 65.1299, "RA_OF_ASC_NODE": 319.1706, "ARG_OF_PERICENTER": 220.1484, "MEAN_ANOMALY": 139.7557, "EPHEMERIS_TYPE": 0, "CLASSIFICATION_TYPE": "U", "NORAD_CAT_ID": 41330, "ELEMENT_SET_NO": 999, "REV_AT_EPOCH": 7679, "BSTAR": 0, "MEAN_MOTION_DOT": -5.7e-07, "MEAN_MOTION_DDOT": 0}, "tle": {"line1": "1 41330U 16008A   25353.55843500 -.00000057  00000+0  00000+0 0  9995", "line2": "2 41330  65.1299 319.1706 0011800 220.1484 139.7557  2.13102719 76795"}}, "geometry": {"type": "Point", "coordinates": [158.89473580681758, -36.10996026106635]}}, {"type": "Feature", "properties": {"norad_id": 42939, "name": "COSMOS 2522 (752)", "group": "glo-ops", "lat": -13.853151588171398, "lon": -168.91702627250976, "alt_km": 19140.43771743759, "timestamp": "2025-12-20T07:33:51.073968+00:00", "meta": {"OBJECT_NAME": "COSMOS 2522 (752)", "OBJECT_ID": "2017-055A", "EPOCH": "2025-12-18T22:15:40.453056", "MEAN_MOTION": 2.13102086, "ECCENTRICITY": 0.00063844, "INCLINATION": 64.0762, "RA_OF_ASC_NODE": 198.0182, "ARG_OF_PERICENTER": 224.0179, "MEAN_ANOMALY": 136.0111, "EPHEMERIS_TYPE": 0, "CLASSIFICATION_TYPE": "U", "NORAD_CAT_ID": 42939, "ELEMENT_SET_NO": 999, "REV_AT_EPOCH": 6413, "BSTAR": 0, "MEAN_MOTION_DOT": 1.07e-06, "MEAN_MOTION_DDOT": 0}, "tle": {"line1": "1 42939U 17055A   25352.92755154  .00000107  00000+0  00000+0 0  9996", "line2": "2 42939  64.0762 198.0182 0006384 224.0179 136.0111  2.13102086 64139"}}, "geometry": {"type": "Point", "coordinates": [-168.91702627250976, -13.853151588171398]}}, {"type": "Feature", "properties": {"norad_id": 43508, "name": "COSMOS 2527 (756)", "group": "glo-ops", "lat": 13.23734418826637, "lon": 86.0438532851144, "alt_km": 19147.78269553386, "timestamp": "2025-12-20T07:33:51.073983+00:00", "meta": {"OBJECT_NAME": "COSMOS 2527 (756)", "OBJECT_ID": "2018-053A", "EPOCH": "2025-12-18T21:19:14.310912", "MEAN_MOTION": 2.13102316, "ECCENTRICITY": 0.0008836, "INCLINATION": 65.4759, "RA_OF_ASC_NODE": 79.9259, "ARG_OF_PERICENTER": 226.7635, "MEAN_ANOMALY": 133.1863, "EPHEMERIS_TYPE": 0, "CLASSIFICATION_TYPE": "U", "NORAD_CAT_ID": 43508, "ELEMENT_SET_NO": 999, "REV_AT_EPOCH": 5843, "BSTAR": 0, "MEAN_MOTION_DOT": -3.3e-07, "MEAN_MOTION_DDOT": 0}, "tle": {"line1": "1 43508U 18053A   25352.88836008 -.00000033  00000+0  00000+0 0  9990", "line2": "2 43508  65.4759  79.9259 0008836 226.7635 133.1863  2.13102316 58439"}}, "geometry": {"type": "Point", "coordinates": [86.0438532851144, 13.23734418826637]}}, {"type": "Feature", "properties": {"norad_id": 43687, "name": "COSMOS 2529 (757)", "group": "glo-ops", "lat": -51.36280087334993, "lon": 161.55462983016585, "alt_km": 19123.301691443234, "timestamp": "2025-12-20T07:33:51.073994+00:00", "meta": {"OBJECT_NAME": "COSMOS 2529 (757)", "OBJECT_ID": "2018-086A", "EPOCH": "2025-12-18T12:23:46.661856", "MEAN_MOTION": 2.13102105, "ECCENTRICITY": 0.00070461, "INCLINATION": 64.2922, "RA_OF_ASC_NODE": 198.6932, "ARG_OF_PERICENTER": 253.6593, "MEAN_ANOMALY": 106.345, "EPHEMERIS_TYPE": 0, "CLASSIFICATION_TYPE": "U", "NORAD_CAT_ID": 43687, "ELEMENT_SET_NO": 999, "REV_AT_EPOCH": 5543, "BSTAR": 0, "MEAN_MOTION_DOT": 1.09e-06, "MEAN_MOTION_DDOT": 0}, "tle": {"line1": "1 43687U 18086A   25352.51651229  .00000109  00000+0  00000+0 0  9997", "line2": "2 43687  64.2922 198.6932 0007046 253.6593 106.3450  2.13102105 55434"}}, "geometry": {"type": "Point", "coordinates": [161.55462983016585, -51.36280087334993]}}, {"type": "Feature", "properties": {"norad_id": 44299, "name": "COSMOS 2534 (758)", "group": "glo-ops", "lat": 60.19817716949171, "lon": -104.3476608631409, "alt_km": 19142.589392606573, "timestamp": "2025-12-20T07:33:51.074005+00:00", "meta": {"OBJECT_NAME": "COSMOS 2534 (758)", "OBJECT_ID": "2019-030A", "EPOCH": "2025-12-18T18:30:09.690336", "MEAN_MOTION": 2.13102412, "ECCENTRICITY": 0.0008748, "INCLINATION": 64.3658, "RA_OF_ASC_NODE": 198.6898, "ARG_OF_PERICENTER": 284.2192, "MEAN_ANOMALY": 45.4012, "EPHEMERIS_TYPE": 0, "CLASSIFICATION_TYPE": "U", "NORAD_CAT_ID": 44299, "ELEMENT_SET_NO": 999, "REV_AT_EPOCH": 5107, "BSTAR": 0, "MEAN_MOTION_DOT": 1.08e-06, "MEAN_MOTION_DDOT": 0}, "tle": {"line1": "1 44299U 19030A   25352.77094549  .00000108  00000+0  00000+0 0  9990", "line2": "2 44299  64.3658 198.6898 0008748 284.2192  45.4012  2.13102412 51071"}}, "geometry": {"type": "Point", "coordinates": [-104.3476608631409, 60.19817716949171]}}, {"type": "Feature", "properties": {"norad_id": 44850, "name": "COSMOS 2544 (759)", "group": "glo-ops", "lat": 49.752128083033625, "lon": 112.30757508167896, "alt_km": 19159.256849416448, "timestamp": "2025-12-20T07:33:51.074016+00:00", "meta": {"OBJECT_NAME": "COSMOS 2544 (759)", "OBJECT_ID": "2019-088A", "EPOCH": "2025-12-19T07:15:09.090720", "MEAN_MOTION": 2.13102067, "ECCENTRICITY": 0.0014082, "INCLINATION": 65.4636, "RA_OF_ASC_NODE": 79.7387, "ARG_OF_PERICENTER": 249.9981, "MEAN_ANOMALY": 109.8765, "EPHEMERIS_TYPE": 0, "CLASSIFICATION_TYPE": "U", "NORAD_CAT_ID": 44850, "ELEMENT_SET_NO": 999, "REV_AT_EPOCH": 4688, "BSTAR": 0, "MEAN_MOTION_DOT": -2.9e-07, "MEAN_MOTION_DDOT": 0}, "tle": {"line1": "1 44850U 19088A   25353.30218855 -.00000029  00000+0  00000+0 0  9997", "line2": "2 44850  65.4636  79.7387 0014082 249.9981 109.8765  2.13102067 46885"}}, "geometry": {"type": "Point", "coordinates": [112.30757508167896, 49.752128083033625]}}]}